{"type": "FeatureCollection", "features": [ {"type": "Feature", "properties": {"norad_id": 34472, "name": "COSMOS 2251 DEB", "group": "cosmos-2251-debris", "lat": -57.65486488389462, "lon": -77.66744416948477, "alt_km": 811.2538413543516, "timestamp": "2025-12-26T11:25:45.584990+00:00", "meta": {"OBJECT_NAME": "COSMOS 2251 DEB", "OBJECT_ID": "1993-036TR", "EPOCH": "2025-12-25T14:59:08.401056", "MEAN_MOTION": 13.7035431, "ECCENTRICITY": 0.032767, "INCLINATION": 74.0846, "RA_OF_ASC_NODE": 76.9541, "ARG_OF_PERICENTER": 205.149, "MEAN_ANOMALY": 153.3364, "EPHEMERIS_TYPE": 0, "CLASSIFICATION_TYPE": "U", "NORAD_CAT_ID": 34472, "ELEMENT_SET_NO": 999, "REV_AT_EPOCH": 83903, "BSTAR": 0.00075081, "MEAN_MOTION_DOT": 9.47e-06, "MEAN_MOTION_DDOT": 0}, "tle": {"line1": "1 34472U 93036TR  25359.62440279  .00000947  00000+0  75081-3 0  9992", "line2": "2 34472  74.0846  76.9541 0327670 205.1490 153.3364 13.70354310839034"}}, "geometry": {"type": "Point", "coordinates": [-77.66744416948477, -57.65486488389462]}}, {"type": "Feature", "properties": {"norad_id": 34474, "name": "COSMOS 2251 DEB", "group": "cosmos-2251-debris", "lat": -2.6052704077077156, "lon": -58.54712923480322, "alt_km": 734.5668834483022, "timestamp": "2025-12-26T11:25:45.584999+00:00", "meta": {"OBJECT_NAME": "COSMOS 2251 DEB", "OBJECT_ID": "1993-036TT", "EPOCH": "2025-12-25T13:46:35.156064", "MEAN_MOTION": 14.06520553, "ECCENTRICITY": 0.0199435, "INCLINATION": 74.0788, "RA_OF_ASC_NODE": 303.7716, "ARG_OF_PERICENTER": 14.5728, "MEAN_ANOMALY": 96.9226, "EPHEMERIS_TYPE": 0, "CLASSIFICATION_TYPE": "U", "NORAD_CAT_ID": 34474, "ELEMENT_SET_NO": 999, "REV_AT_EPOCH": 85689, "BSTAR": 0.0025497, "MEAN_MOTION_DOT": 5.032e-05, "MEAN_MOTION_DDOT": 0}, "tle": {"line1": "1 34474U 93036TT  25359.57401801  .00005032  00000+0  25497-2 0  9991", "line2": "2 34474  74.0788 303.7716 0199435  14.5728  96.9226 14.06520553856894"}}, "geometry": {"type": "Point", "coordinates": [-58.54712923480322, -2.6052704077077156]}}, {"type": "Feature", "properties": {"norad_id": 34476, "name": "COSMOS 2251 DEB", "group": "cosmos-2251-debris", "lat": -21.467547598525233, "lon": -114.17329768231767, "alt_km": 888.1615523852952, "timestamp": "2025-12-26T11:25:45.585008+00:00", "meta": {"OBJECT_NAME": "COSMOS 2251 DEB", "OBJECT_ID": "1993-036TV", "EPOCH": "2025-12-23T04:15:02.567520", "MEAN_MOTION": 13.82132648, "ECCENTRICITY": 0.03222242, "INCLINATION": 74.0063, "RA_OF_ASC_NODE": 64.9101, "ARG_OF_PERICENTER": 282.3311, "MEAN_ANOMALY": 74.192, "EPHEMERIS_TYPE": 0, "CLASSIFICATION_TYPE": "U", "NORAD_CAT_ID": 34476, "ELEMENT_SET_NO": 999, "REV_AT_EPOCH": 83782, "BSTAR": 0.0037798313, "MEAN_MOTION_DOT": 6.03e-05, "MEAN_MOTION_DDOT": 0}, "tle": {"line1": "1 34476U 93036TV  25357.17711305  .00006030  00000+0  37798-2 0  9996", "line2": "2 34476  74.0063  64.9101 0322224 282.3311  74.1920 13.82132648837821"}}, "geometry": {"type": "Point", "coordinates": [-114.17329768231767, -21.467547598525233]}}, {"type": "Feature", "properties": {"norad_id": 34477, "name": "COSMOS 2251 DEB", "group": "cosmos-2251-debris", "lat": -15.468332347690538, "lon": -132.1159675798345, "alt_km": 661.2426141313927, "timestamp": "2025-12-26T11:25:45.585017+00:00", "meta": {"OBJECT_NAME": "COSMOS 2251 DEB", "OBJECT_ID": "1993-036TW", "EPOCH": "2025-12-26T04:11:44.255328", "MEAN_MOTION": 14.56954822, "ECCENTRICITY": 0.0076624, "INCLINATION": 73.9786, "RA_OF_ASC_NODE": 43.8975, "ARG_OF_PERICENTER": 228.5478, "MEAN_ANOMALY": 187.6774, "EPHEMERIS_TYPE": 0, "CLASSIFICATION_TYPE": "U", "NORAD_CAT_ID": 34477, "ELEMENT_SET_NO": 999, "REV_AT_EPOCH": 88821, "BSTAR": 0.00071339, "MEAN_MOTION_DOT": 3.305e-05, "MEAN_MOTION_DDOT": 0}, "tle": {"line1": "1 34477U 93036TW  25360.17481777  .00003305  00000+0  71339-3 0  9990", "line2": "2 34477  73.9786  43.8975 0076624 228.5478 187.6774 14.56954822888217"}}, "geometry": {"type": "Point", "coordinates": [-132.1159675798345, -15.468332347690538]}}, {"type": "Feature", "properties": {"norad_id": 34478, "name": "COSMOS 2251 DEB", "group": "cosmos-2251-debris", "lat": 67.358759308839, "lon": 115.27596154336521, "alt_km": 530.8119349014869, "timestamp": "2025-12-26T11:25:45.585027+00:00", "meta": {"OBJECT_NAME": "COSMOS 2251 DEB", "OBJECT_ID": "1993-036TX", "EPOCH": "2025-12-26T03:33:48.284928", "MEAN_MOTION": 15.09194751, "ECCENTRICITY": 0.0033509, "INCLINATION": 74.0404, "RA_OF_ASC_NODE": 339.2742, "ARG_OF_PERICENTER": 195.1093, "MEAN_ANOMALY": 291.5751, "EPHEMERIS_TYPE": 0, "CLASSIFICATION_TYPE": "U", "NORAD_CAT_ID": 34478, "ELEMENT_SET_NO": 999, "REV_AT_EPOCH": 89175, "BSTAR": 0.0029302, "MEAN_MOTION_DOT": 0.00047466, "MEAN_MOTION_DDOT": 0}, "tle": {"line1": "1 34478U 93036TX  25360.14847552  .00047466  00000+0  29302-2 0  9993", "line2": "2 34478  74.0404 339.2742 0033509 195.1093 291.5751 15.09194751891757"}}, "geometry": {"type": "Point", "coordinates": [115.27596154336521, 67.358759308839]}}, {"type": "Feature", "properties": {"norad_id": 34481, "name": "COSMOS 2251 DEB", "group": "cosmos-2251-debris", "lat": -73.85700385574314, "lon": -68.64820338280687, "alt_km": 770.9268319375988, "timestamp": "2025-12-26T11:25:45.585036+00:00", "meta": {"OBJECT_NAME": "COSMOS 2251 DEB", "OBJECT_ID": "1993-036UA", "EPOCH": "2025-12-26T01:57:47.583072", "MEAN_MOTION": 14.32596743, "ECCENTRICITY": 0.0070175, "INCLINATION": 73.9789, "RA_OF_ASC_NODE": 29.0117, "ARG_OF_PERICENTER": 200.8361, "MEAN_ANOMALY": 193.1339, "EPHEMERIS_TYPE": 0, "CLASSIFICATION_TYPE": "U", "NORAD_CAT_ID": 34481, "ELEMENT_SET_NO": 999, "REV_AT_EPOCH": 87640, "BSTAR": 0.00059012, "MEAN_MOTION_DOT": 1.62e-05, "MEAN_MOTION_DDOT": 0}, "tle": {"line1": "1 34481U 93036UA  25360.08180073  .00001620  00000+0  59012-3 0  9992", "line2": "2 34481  73.9789  29.0117 0070175 200.8361 193.1339 14.32596743876403"}}, "geometry": {"type": "Point", "coordinates": [-68.64820338280687, -73.85700385574314]}}, {"type": "Feature", "properties": {"norad_id": 34482, "name": "COSMOS 2251 DEB", "group": "cosmos-2251-debris", "lat": 73.83736164656712, "lon": -64.0160981367096, "alt_km": 685.0479704967347, "timestamp": "2025-12-26T11:25:45.585045+00:00", "meta": {"OBJECT_NAME": "COSMOS 2251 DEB", "OBJECT_ID": "1993-036UB", "EPOCH": "2025-12-26T00:15:45.284256", "MEAN_MOTION": 14.6943455, "ECCENTRICITY": 0.0044269, "INCLINATION": 74.036, "RA_OF_ASC_NODE": 197.8906, "ARG_OF_PERICENTER": 255.4286, "MEAN_ANOMALY": 256.9105, "EPHEMERIS_TYPE": 0, "CLASSIFICATION_TYPE": "U", "NORAD_CAT_ID": 34482, "ELEMENT_SET_NO": 999, "REV_AT_EPOCH": 88382, "BSTAR": 0.0016911, "MEAN_MOTION_DOT": 0.00010147, "MEAN_MOTION_DDOT": 0}, "tle": {"line1": "1 34482U 93036UB  25360.01094079  .00010147  00000+0  16911-2 0  9990", "line2": "2 34482  74.0360 197.8906 0044269 255.4286 256.9105 14.69434550883828"}}, "geometry": {"type": "Point", "coordinates": [-64.0160981367096, 73.83736164656712]}}, {"type": "Feature", "properties": {"norad_id": 34544, "name": "COSMOS 2251 DEB", "group": "cosmos-2251-debris", "lat": 65.36106063730891, "lon": -139.22280336723867, "alt_km": 1250.2967017343399, "timestamp": "2025-12-26T11:25:45.585054+00:00", "meta": {"OBJECT_NAME": "COSMOS 2251 DEB", "OBJECT_ID": "1993-036UE", "EPOCH": "2025-12-22T13:17:43.726848", "MEAN_MOTION": 13.54671118, "ECCENTRICITY": 0.03836445, "INCLINATION": 73.9138, "RA_OF_ASC_NODE": 188.1407, "ARG_OF_PERICENTER": 214.797, "MEAN_ANOMALY": 178.3987, "EPHEMERIS_TYPE": 0, "CLASSIFICATION_TYPE": "U", "NORAD_CAT_ID": 34544, "ELEMENT_SET_NO": 999, "REV_AT_EPOCH": 83015, "BSTAR": 0.00039748277, "MEAN_MOTION_DOT": 4.13e-06, "MEAN_MOTION_DDOT": 0}, "tle": {"line1": "1 34544U 93036UE  25356.55397832  .00000413  00000+0  39748-3 0  9995", "line2": "2 34544  73.9138 188.1407 0383644 214.7970 178.3987 13.54671118830157"}}, "geometry": {"type": "Point", "coordinates": [-139.22280336723867, 65.36106063730891]}}, {"type": "Feature", "properties": {"norad_id": 34546, "name": "COSMOS 2251 DEB", "group": "cosmos-2251-debris", "lat": -7.642729835826852, "lon": 45.7753481553436, "alt_km": 748.8580111894507, "timestamp": "2025-12-26T11:25:45.585063+00:00", "meta": {"OBJECT_NAME": "COSMOS 2251 DEB", "OBJECT_ID": "1993-036UG", "EPOCH": "2025-12-25T18:29:57.837984", "MEAN_MOTION": 14.45461725, "ECCENTRICITY": 0.00220624, "INCLINATION": 74.0292, "RA_OF_ASC_NODE": 224.888, "ARG_OF_PERICENTER": 297.215, "MEAN_ANOMALY": 181.6117, "EPHEMERIS_TYPE": 0, "CLASSIFICATION_TYPE": "U", "NORAD_CAT_ID": 34546, "ELEMENT_SET_NO": 999, "REV_AT_EPOCH": 88214, "BSTAR": 0.00052557969, "MEAN_MOTION_DOT": 1.83e-05, "MEAN_MOTION_DDOT": 0}, "tle": {"line1": "1 34546U 93036UG  25359.77080831  .00001830  00000+0  52558-3 0  9990", "line2": "2 34546  74.0292 224.8880 0022062 297.2150 181.6117 14.45461725882145"}}, "geometry": {"type": "Point", "coordinates": [45.7753481553436, -7.642729835826852]}}, {"type": "Feature", "properties": {"norad_id": 34547, "name": "COSMOS 2251 DEB", "group": "cosmos-2251-debris", "lat": -73.69366313978539, "lon": -4.230951579781889, "alt_km": 665.5128157848303, "timestamp": "2025-12-26T11:25:45.585072+00:00", "meta": {"OBJECT_NAME": "COSMOS 2251 DEB", "OBJECT_ID": "1993-036UH", "EPOCH": "2025-12-24T22:19:25.423968", "MEAN_MOTION": 14.7260031, "ECCENTRICITY": 0.00159248, "INCLINATION": 74.0301, "RA_OF_ASC_NODE": 76.9883, "ARG_OF_PERICENTER": 154.8954, "MEAN_ANOMALY": 205.2996, "EPHEMERIS_TYPE": 0, "CLASSIFICATION_TYPE": "U", "NORAD_CAT_ID": 34547, "ELEMENT_SET_NO": 999, "REV_AT_EPOCH": 88701, "BSTAR": 0.0017419579, "MEAN_MOTION_DOT": 0.00011095, "MEAN_MOTION_DDOT": 0}, "tle": {"line1": "1 34547U 93036UH  25358.93015537  .00011095  00000+0  17420-2 0  9991", "line2": "2 34547  74.0301  76.9883 0015924 154.8954 205.2996 14.72600310887019"}}, "geometry": {"type": "Point", "coordinates": [-4.230951579781889, -73.69366313978539]}}]}